OBJECT_NAME,OBJECT_ID,EPOCH,MEAN_MOTION,ECCENTRICITY,INCLINATION,RA_OF_ASC_NODE,ARG_OF_PERICENTER,MEAN_ANOMALY,EPHEMERIS_TYPE,CLASSIFICATION_TYPE,NORAD_CAT_ID,ELEMENT_SET_NO,REV_AT_EPOCH,BSTAR,MEAN_MOTION_DOT,MEAN_MOTION_DDOT
BEIDOU-2 IGSO-5 (C10),2011-073A,2026-06-24T15:46:07.226112,1.00272136,.01142233,47.6633,271.4526,222.0346,107.5350,0,U,37948,999,5320,0,-.196E-5,0
LUCH 5A (SDCM/PRN 140),2011-074B,2026-06-27T15:03:29.254752,1.00272476,.000273,8.7797,73.6563,33.3636,201.5146,0,U,37951,999,5315,0,-.47E-6,0
BEIDOU-2 G5 (C05),2012-008A,2026-06-27T04:13:54.844608,1.00275907,.00086086,3.5989,69.6432,276.0953,51.7632,0,U,38091,999,5246,0,.64E-6,0
BEIDOU-2 M3 (C11),2012-018A,2026-06-25T18:43:13.183680,1.86229866,.0020315,55.7497,304.5848,273.3514,86.4060,0,U,38250,999,9610,0,-.106E-5,0
BEIDOU-2 M4 (C12),2012-018B,2026-06-26T05:58:57.768672,1.86229631,.00117016,55.6492,303.7834,273.7859,86.0713,0,U,38251,999,9611,0,-.103E-5,0
SES-5 (EGNOS/PRN 136),2012-036A,2026-06-27T12:31:51.701088,1.00269092,.0002369,0.0455,318.1392,133.5086,16.9182,0,U,38652,999,4456,0,.45E-6,0
BEIDOU-2 M6 (C14),2012-050B,2026-06-25T23:00:55.897920,1.86231117,.0013516,56.5518,62.6042,358.2268,1.8099,0,U,38775,999,9347,0,-.89E-6,0
GSAT-10 (GAGAN/PRN 128),2012-051B,2026-06-27T11:11:29.743008,1.00271951,.0008183,0.0584,258.1707,193.0496,75.2551,0,U,38779,999,5020,0,-.153E-5,0
GPS BIIF-3  (PRN 24),2012-053A,2026-06-27T06:54:00.923616,2.00567714,.018088,53.5876,143.1856,65.9141,295.9290,0,U,38833,999,9964,0,.19E-6,0
GSAT0103 (GALILEO-FM3),2012-055A,2026-06-26T20:39:51.533568,1.70473558,.00046383,55.8122,101.2802,306.6783,53.2530,0,U,38857,999,8517,0,-.37E-6,0
BEIDOU-2 G6 (C02),2012-059A,2026-06-27T02:38:24.922752,1.00271322,.00096958,4.4468,73.4212,328.8904,356.5521,0,U,38953,999,5000,0,-.168E-5,0
LUCH 5B (SDCM/PRN 125),2012-061A,2026-06-27T10:43:01.358400,1.00272694,.0002562,10.5057,49.7809,135.9824,234.2958,0,U,38977,999,4971,0,-.135E-5,0
COSMOS 2485 (747),2013-019A,2026-06-27T05:36:33.082272,2.13103295,.002291,65.4252,73.2671,232.8969,126.9354,0,U,39155,999,10249,0,-.52E-6,0
GPS BIIF-4  (PRN 27),2013-023A,2026-06-26T15:44:53.202912,2.00563559,.01414361,54.4965,268.5877,51.0497,310.2453,0,U,39166,999,9607,0,-.35E-6,0
IRNSS-1A,2013-034A,2026-06-26T17:57:02.998368,1.00278024,.00185483,35.7414,63.7332,177.8965,357.4604,0,U,39199,999,4746,0,.49E-6,0
GPS BIIF-5  (PRN 30),2014-008A,2026-06-26T15:47:23.285760,2.00560485,.00842133,53.6560,148.9335,231.3918,127.8244,0,U,39533,999,8987,0,.36E-6,0
ASTRA 5B (EGNOS/PRN 123),2014-011B,2026-06-27T12:37:07.580352,1.00272872,.0002212,0.0522,326.6148,114.4311,47.3410,0,U,39617,999,4477,0,.149E-5,0
COSMOS 2492 (754),2014-012A,2026-06-23T21:47:10.853664,2.13103141,.00102141,65.2933,313.7069,323.0851,36.8355,0,U,39620,999,9538,0,-.82E-6,0
IRNSS-1B,2014-017A,2026-06-26T17:56:55.510080,1.00269902,.00235518,28.9068,240.2389,196.9483,161.9840,0,U,39635,999,4488,0,.145E-5,0
LUCH 5V (SDCM/PRN 141),2014-023A,2026-06-27T02:41:32.123904,1.00271863,.00024945,5.1575,69.6499,49.8207,290.8987,0,U,39727,999,4445,0,-.262E-5,0
GPS BIIF-6  (PRN 06),2014-026A,2026-06-27T10:22:16.343040,2.00560424,.0038117,56.4930,331.1187,326.3333,33.4163,0,U,39741,999,8873,0,-.101E-5,0
COSMOS 2500 (755),2014-032A,2026-06-26T21:25:50.568096,2.13105995,.0007742,65.2261,313.3519,186.1221,173.8575,0,U,40001,999,9366,0,-.83E-6,0
GPS BIIF-7  (PRN 09),2014-045A,2026-06-26T00:40:32.827008,2.00559107,.0033686,55.3587,88.1127,118.2750,242.0678,0,U,40105,999,8625,0,-.68E-6,0
GSAT0201 (GALILEO 5),2014-050A,2026-06-26T00:58:35.923584,1.85520188,.1675889,48.8656,273.0732,179.7342,180.4221,0,U,40128,999,7848,0,-.7E-6,0
GSAT0202 (GALILEO 6),2014-050B,2026-06-27T08:58:48.625824,1.85520761,.1677252,48.8808,272.1040,180.5175,179.3439,0,U,40129,999,8067,0,-.53E-6,0
IRNSS-1C,2014-061A,2026-06-26T19:47:24.321120,1.00275377,.0022153,6.5413,88.7480,4.7064,201.2419,0,U,40269,999,4278,0,-.156E-5,0
GPS BIIF-8  (PRN 03),2014-068A,2026-06-26T21:28:04.417248,2.00576946,.00672455,56.9942,30.5808,70.9615,289.8243,0,U,40294,999,8540,0,-.79E-6,0
COSMOS 2501 (702K),2014-075A,2026-06-26T05:11:57.010848,2.13109644,.00222379,63.6151,190.0588,210.4369,149.4832,0,U,40315,999,9004,0,.105E-5,0
GPS BIIF-9  (PRN 26),2015-013A,2026-06-26T00:53:47.328576,2.00550980,.01097479,53.1674,203.8114,40.1916,320.6840,0,U,40534,999,8200,0,.87E-6,0
GSAT0203 (GALILEO 7),2015-017A,2026-06-26T14:21:18.819936,1.70476365,.00021306,56.7831,341.3391,269.4919,90.4779,0,U,40544,999,6936,0,-.96E-6,0
GSAT0204 (GALILEO 8),2015-017B,2026-06-23T22:06:17.261568,1.70475870,.00020932,56.7909,341.4306,241.0442,118.9316,0,U,40545,999,3236,0,-.99E-6,0
